start=new Date('2022-06-16T00:00:00.000Z').valueOf();
sats=[{"RCS_SIZE":"LARGE","TLE_LINE1":"1 46573U 20070AT  22166.71782941 -.00000617  00000-0 -22499-4 0  9996","MEAN_MOTION":"15.06403290","APOAPSIS":"548.555","MEAN_MOTION_DOT":"-0.00000617","MEAN_MOTION_DDOT":"0.0000000000000","COUNTRY_CODE":"US","MEAN_ANOMALY":"308.4921","SEMIMAJOR_AXIS":"6925.338","EPHEMERIS_TYPE":"0","TIME_SYSTEM":"UTC","TLE_LINE2":"2 46573  53.0539 160.2207 0001951  51.6243 308.4921 15.06403290 94287","NORAD_CAT_ID":"46573","SITE":"AFETR","ELEMENT_SET_NO":"999","GP_ID":"206237287","INCLINATION":"53.0539","MEAN_ELEMENT_THEORY":"SGP4","DECAY_DATE":null,"LAUNCH_DATE":"2020-10-06","BSTAR":"-0.00002249900000","REF_FRAME":"TEME","ARG_OF_PERICENTER":"51.6243","OBJECT_NAME":"STARLINK-1650","CENTER_NAME":"EARTH","RA_OF_ASC_NODE":"160.2207","CLASSIFICATION_TYPE":"U","PERIAPSIS":"545.852","PERIOD":"95.592","REV_AT_EPOCH":"9428","EPOCH":"2022-06-15T17:13:40.461024","FILE":"3496999","OBJECT_ID":"2020-070AT","OBJECT_TYPE":"PAYLOAD","ECCENTRICITY":"0.00019510"},{"PERIAPSIS":"546.068","ECCENTRICITY":"0.00016440","OBJECT_TYPE":"PAYLOAD","OBJECT_ID":"2020-070AU","FILE":"3496999","EPOCH":"2022-06-15T16:53:48.423552","REV_AT_EPOCH":"9428","PERIOD":"95.592","LAUNCH_DATE":"2020-10-06","BSTAR":"0.00017779000000","DECAY_DATE":null,"MEAN_ELEMENT_THEORY":"SGP4","INCLINATION":"53.0544","CLASSIFICATION_TYPE":"U","RA_OF_ASC_NODE":"160.3042","CENTER_NAME":"EARTH","OBJECT_NAME":"STARLINK-1660","ARG_OF_PERICENTER":"56.9611","REF_FRAME":"TEME","TLE_LINE2":"2 46574  53.0544 160.3042 0001644  56.9611 303.1536 15.06402252 94289","TIME_SYSTEM":"UTC","EPHEMERIS_TYPE":"0","SEMIMAJOR_AXIS":"6925.342","GP_ID":"206236036","ELEMENT_SET_NO":"999","SITE":"AFETR","NORAD_CAT_ID":"46574","COUNTRY_CODE":"US","MEAN_ANOMALY":"303.1536","MEAN_MOTION_DDOT":"0.0000000000000","APOAPSIS":"548.345","MEAN_MOTION_DOT":"0.00002368","MEAN_MOTION":"15.06402252","TLE_LINE1":"1 46574U 20070AU  22166.70403268  .00002368  00000-0  17779-3 0  9995","RCS_SIZE":"LARGE"},{"EPHEMERIS_TYPE":"0","SEMIMAJOR_AXIS":"6925.346","TIME_SYSTEM":"UTC","TLE_LINE2":"2 46575  53.0583 137.1384 0002255  51.3391 308.7799 15.06400860 94574","NORAD_CAT_ID":"46575","SITE":"AFETR","GP_ID":"206215241","ELEMENT_SET_NO":"999","TLE_LINE1":"1 46575U 20070AV  22166.29535077  .00000611  00000-0  59936-4 0  9995","RCS_SIZE":"LARGE","COUNTRY_CODE":"US","MEAN_ANOMALY":"308.7799","MEAN_MOTION_DDOT":"0.0000000000000","APOAPSIS":"548.773","MEAN_MOTION_DOT":"0.00000611","MEAN_MOTION":"15.06400860","PERIAPSIS":"545.649","PERIOD":"95.592","OBJECT_TYPE":"PAYLOAD","ECCENTRICITY":"0.00022550","FILE":"3496979","OBJECT_ID":"2020-070AV","EPOCH":"2022-06-15T07:05:18.306528","REV_AT_EPOCH":"9457","MEAN_ELEMENT_THEORY":"SGP4","INCLINATION":"53.0583","LAUNCH_DATE":"2020-10-06","BSTAR":"0.00005993600000","DECAY_DATE":null,"CENTER_NAME":"EARTH","OBJECT_NAME":"STARLINK-1675","ARG_OF_PERICENTER":"51.3391","REF_FRAME":"TEME","CLASSIFICATION_TYPE":"U","RA_OF_ASC_NODE":"137.1384"},{"TLE_LINE1":"1 46576U 20070AW  22166.82936145 -.00004633  00000-0 -29218-3 0  9995","RCS_SIZE":"LARGE","COUNTRY_CODE":"US","MEAN_ANOMALY":"316.3244","MEAN_MOTION_DDOT":"0.0000000000000","APOAPSIS":"548.774","MEAN_MOTION_DOT":"-0.00004633","MEAN_MOTION":"15.06412821","SITE":"AFETR","NORAD_CAT_ID":"46576","GP_ID":"206237536","ELEMENT_SET_NO":"999","EPHEMERIS_TYPE":"0","SEMIMAJOR_AXIS":"6925.309","TIME_SYSTEM":"UTC","TLE_LINE2":"2 46576  53.0539 159.7305 0002310  43.7928 316.3244 15.06412821 94303","CENTER_NAME":"EARTH","OBJECT_NAME":"STARLINK-1677","ARG_OF_PERICENTER":"43.7928","REF_FRAME":"TEME","CLASSIFICATION_TYPE":"U","RA_OF_ASC_NODE":"159.7305","MEAN_ELEMENT_THEORY":"SGP4","INCLINATION":"53.0539","BSTAR":"-0.00029218000000","LAUNCH_DATE":"2020-10-06","DECAY_DATE":null,"PERIOD":"95.591","OBJECT_TYPE":"PAYLOAD","ECCENTRICITY":"0.00023100","OBJECT_ID":"2020-070AW","FILE":"3496999","EPOCH":"2022-06-15T19:54:16.829280","REV_AT_EPOCH":"9430","PERIAPSIS":"545.575"},{"GP_ID":"206206337","ELEMENT_SET_NO":"999","SITE":"AFETR","NORAD_CAT_ID":"46577","TLE_LINE2":"2 46577  53.0523 161.6929 0001892  53.6391 306.4772 15.06395348 94231","TIME_SYSTEM":"UTC","EPHEMERIS_TYPE":"0","SEMIMAJOR_AXIS":"6925.363","MEAN_ANOMALY":"306.4772","COUNTRY_CODE":"US","MEAN_MOTION_DDOT":"0.0000000000000","MEAN_MOTION_DOT":"0.00001147","APOAPSIS":"548.538","MEAN_MOTION":"15.06395348","TLE_LINE1":"1 46577U 20070AX  22166.39440860  .00001147  00000-0  95939-4 0  9991","RCS_SIZE":"LARGE","ECCENTRICITY":"0.00018920","OBJECT_TYPE":"PAYLOAD","OBJECT_ID":"2020-070AX","FILE":"3496794","EPOCH":"2022-06-15T09:27:56.903040","REV_AT_EPOCH":"9423","PERIOD":"95.592","PERIAPSIS":"545.918","CLASSIFICATION_TYPE":"U","RA_OF_ASC_NODE":"161.6929","CENTER_NAME":"EARTH","OBJECT_NAME":"STARLINK-1682","ARG_OF_PERICENTER":"53.6391","REF_FRAME":"TEME","LAUNCH_DATE":"2020-10-06","BSTAR":"0.00009593900000","DECAY_DATE":null,"MEAN_ELEMENT_THEORY":"SGP4","INCLINATION":"53.0523"},{"TLE_LINE1":"1 46578U 20070AY  22166.64091720  .00000444  00000-0  48754-4 0  9999","RCS_SIZE":"LARGE","MEAN_ANOMALY":"299.9594","COUNTRY_CODE":"US","MEAN_MOTION_DDOT":"0.0000000000000","MEAN_MOTION_DOT":"0.00000444","APOAPSIS":"548.633","MEAN_MOTION":"15.06396159","EPHEMERIS_TYPE":"0","SEMIMAJOR_AXIS":"6925.360","TLE_LINE2":"2 46578  53.0554 145.6360 0002032  60.1597 299.9594 15.06396159 94481","TIME_SYSTEM":"UTC","NORAD_CAT_ID":"46578","SITE":"AFETR","GP_ID":"206236535","ELEMENT_SET_NO":"999","MEAN_ELEMENT_THEORY":"SGP4","INCLINATION":"53.0554","LAUNCH_DATE":"2020-10-06","BSTAR":"0.00004875400000","DECAY_DATE":null,"CENTER_NAME":"EARTH","OBJECT_NAME":"STARLINK-1683","ARG_OF_PERICENTER":"60.1597","REF_FRAME":"TEME","CLASSIFICATION_TYPE":"U","RA_OF_ASC_NODE":"145.6360","PERIAPSIS":"545.818","PERIOD":"95.592","OBJECT_TYPE":"PAYLOAD","ECCENTRICITY":"0.00020320","FILE":"3496999","OBJECT_ID":"2020-070AY","REV_AT_EPOCH":"9448","EPOCH":"2022-06-15T15:22:55.246080"},{"REF_FRAME":"TEME","ARG_OF_PERICENTER":"62.1965","OBJECT_NAME":"STARLINK-1705","CENTER_NAME":"EARTH","RA_OF_ASC_NODE":"160.2649","CLASSIFICATION_TYPE":"U","INCLINATION":"53.0542","MEAN_ELEMENT_THEORY":"SGP4","DECAY_DATE":null,"BSTAR":"0.00002045400000","LAUNCH_DATE":"2020-10-06","PERIOD":"95.592","EPOCH":"2022-06-15T17:04:25.656384","REV_AT_EPOCH":"9428","OBJECT_ID":"2020-070AZ","FILE":"3496999","OBJECT_TYPE":"PAYLOAD","ECCENTRICITY":"0.00018600","PERIAPSIS":"545.926","RCS_SIZE":"LARGE","TLE_LINE1":"1 46579U 20070AZ  22166.71140806  .00000023  00000-0  20454-4 0  9998","MEAN_MOTION":"15.06399761","APOAPSIS":"548.502","MEAN_MOTION_DOT":"0.00000023","MEAN_MOTION_DDOT":"0.0000000000000","COUNTRY_CODE":"US","MEAN_ANOMALY":"297.9212","NORAD_CAT_ID":"46579","SITE":"AFETR","ELEMENT_SET_NO":"999","GP_ID":"206236785","SEMIMAJOR_AXIS":"6925.349","EPHEMERIS_TYPE":"0","TIME_SYSTEM":"UTC","TLE_LINE2":"2 46579  53.0542 160.2649 0001860  62.1965 297.9212 15.06399761 94286"},{"TLE_LINE1":"1 46580U 20070BA  22166.68928605 -.00000188  00000-0  63057-5 0  9997","RCS_SIZE":"LARGE","COUNTRY_CODE":"US","MEAN_ANOMALY":"307.7078","MEAN_MOTION_DDOT":"0.0000000000000","MEAN_MOTION_DOT":"-0.00000188","APOAPSIS":"548.545","MEAN_MOTION":"15.06403535","SITE":"AFETR","NORAD_CAT_ID":"46580","GP_ID":"206237037","ELEMENT_SET_NO":"999","EPHEMERIS_TYPE":"0","SEMIMAJOR_AXIS":"6925.338","TLE_LINE2":"2 46580  53.0543 160.3599 0001938  52.4086 307.7078 15.06403535 94281","TIME_SYSTEM":"UTC","CENTER_NAME":"EARTH","OBJECT_NAME":"STARLINK-1708","ARG_OF_PERICENTER":"52.4086","REF_FRAME":"TEME","CLASSIFICATION_TYPE":"U","RA_OF_ASC_NODE":"160.3599","MEAN_ELEMENT_THEORY":"SGP4","INCLINATION":"53.0543","LAUNCH_DATE":"2020-10-06","BSTAR":"0.00000630570000","DECAY_DATE":null,"PERIOD":"95.592","ECCENTRICITY":"0.00019380","OBJECT_TYPE":"PAYLOAD","OBJECT_ID":"2020-070BA","FILE":"3496999","EPOCH":"2022-06-15T16:32:34.314720","REV_AT_EPOCH":"9428","PERIAPSIS":"545.861"},{"PERIAPSIS":"545.866","PERIOD":"95.591","FILE":"3496999","OBJECT_ID":"2020-070BB","EPOCH":"2022-06-15T09:20:39.821856","REV_AT_EPOCH":"9430","ECCENTRICITY":"0.00018900","OBJECT_TYPE":"PAYLOAD","INCLINATION":"53.0544","MEAN_ELEMENT_THEORY":"SGP4","DECAY_DATE":null,"BSTAR":"0.00015648000000","LAUNCH_DATE":"2020-10-06","ARG_OF_PERICENTER":"58.3066","REF_FRAME":"TEME","CENTER_NAME":"EARTH","OBJECT_NAME":"STARLINK-1712","RA_OF_ASC_NODE":"156.7257","CLASSIFICATION_TYPE":"U","SEMIMAJOR_AXIS":"6925.310","EPHEMERIS_TYPE":"0","TIME_SYSTEM":"UTC","TLE_LINE2":"2 46581  53.0544 156.7257 0001890  58.3066 301.8107 15.06412487 94300","SITE":"AFETR","NORAD_CAT_ID":"46581","ELEMENT_SET_NO":"999","GP_ID":"206237288","RCS_SIZE":"LARGE","TLE_LINE1":"1 46581U 20070BB  22166.38934979  .00002051  00000-0  15648-3 0  9997","APOAPSIS":"548.484","MEAN_MOTION_DOT":"0.00002051","MEAN_MOTION":"15.06412487","COUNTRY_CODE":"US","MEAN_ANOMALY":"301.8107","MEAN_MOTION_DDOT":"0.0000000000000"},{"NORAD_CAT_ID":"46582","SITE":"AFETR","GP_ID":"206236037","ELEMENT_SET_NO":"999","EPHEMERIS_TYPE":"0","SEMIMAJOR_AXIS":"6925.309","TIME_SYSTEM":"UTC","TLE_LINE2":"2 46582  53.0543 154.6997 0001611  65.3220 294.7936 15.06412963 94375","TLE_LINE1":"1 46582U 20070BC  22166.83902528  .00003502  00000-0  25378-3 0  9996","RCS_SIZE":"LARGE","MEAN_ANOMALY":"294.7936","COUNTRY_CODE":"US","MEAN_MOTION_DDOT":"0.0000000000000","MEAN_MOTION_DOT":"0.00003502","APOAPSIS":"548.289","MEAN_MOTION":"15.06412963","PERIOD":"95.591","OBJECT_TYPE":"PAYLOAD","ECCENTRICITY":"0.00016110","OBJECT_ID":"2020-070BC","FILE":"3496999","REV_AT_EPOCH":"9437","EPOCH":"2022-06-15T20:08:11.784192","PERIAPSIS":"546.058","CENTER_NAME":"EARTH","OBJECT_NAME":"STARLINK-1728","ARG_OF_PERICENTER":"65.3220","REF_FRAME":"TEME","CLASSIFICATION_TYPE":"U","RA_OF_ASC_NODE":"154.6997","MEAN_ELEMENT_THEORY":"SGP4","INCLINATION":"53.0543","BSTAR":"0.00025378000000","LAUNCH_DATE":"2020-10-06","DECAY_DATE":null}];
